{"fetched_at":"2026-03-30T06:02:59Z","count":15439,"tles":[{"name":"STARLINK-11082 [DTC]","line1":"1 59711U 24088D   26087.75249175  .00002013  00000+0  21459-4 0  9998","line2":"2 59711  53.1603 232.4899 0000877  95.1112 265.0006 15.69721443109260","category":"Starlink"}]}